[
	{
		"id":"flamethrower",
		"maxSpeed":"3.142",
		"acceleration":"3.142"
	},
	{
		"id":"freeze",
		"maxSpeed":"3.142",
		"acceleration":"3.142"
	},
	{
		"id":"isida",
		"maxSpeed":"3.142",
		"acceleration":"3.142"
	},
	{
		"id":"tesla",
		"maxSpeed":"3.142",
		"acceleration":"3.142"
	},
	{
		"id":"hammer",
		"maxSpeed":"2.618",
		"acceleration":"2.618"
	},
	{
		"id":"twins",
		"maxSpeed":"2.618",
		"acceleration":"2.618"
	},
	{
		"id":"ricochet",
		"maxSpeed":"2.618",
		"acceleration":"2.618"
	},
	{
		"id":"smoky",
		"maxSpeed":"2.094",
		"acceleration":"2.094"
	},
	{
		"id":"striker",
		"maxSpeed":"2.094",
		"acceleration":"2.094"
	},
	{
		"id":"vulcan",
		"maxSpeed":"2.094",
		"acceleration":"2.094"
	},
	{
		"id":"thunder",
		"maxSpeed":"2.094",
		"acceleration":"2.094"
	},
	{
		"id":"scorpion",
		"maxSpeed":"1.571",
		"acceleration":"1.571"
	},
	{
		"id":"railgun",
		"maxSpeed":"1.571",
		"acceleration":"1.571"
	},
	{
		"id":"magnum",
		"maxSpeed":"1.571",
		"acceleration":"1.571"
	},
	{
		"id":"gauss",
		"maxSpeed":"1.571",
		"acceleration":"1.571"
	},
	{	
		"id":"shaft",
		"maxSpeed":"1.571",
		"acceleration":"1.571"
	},
	{
		"id":"terminator",
		"maxSpeed":"1.745",
		"acceleration":"1.745"
	},
	{
		"id":"bonk",
		"maxSpeed":"0",
		"acceleration":"0"
	},
	{
		"id":"snowman",
		"maxSpeed":"2.566",
		"acceleration":"2.566"
	},
	{
		"id":"tomato_gun",
		"maxSpeed":"2.566",
		"acceleration":"2.566"
	}
]